[{"OBJECT_NAME":"STARLINK-33683","OBJECT_ID":"2025-076E","EPOCH":"2026-03-09T01:56:45.960864","MEAN_MOTION":15.27589005,"ECCENTRICITY":0.00021679,"INCLINATION":43.0035,"RA_OF_ASC_NODE":325.4548,"ARG_OF_PERICENTER":261.0365,"MEAN_ANOMALY":99.0241,"EPHEMERIS_TYPE":0,"CLASSIFICATION_TYPE":"U","NORAD_CAT_ID":63573,"ELEMENT_SET_NO":999,"REV_AT_EPOCH":5173,"BSTAR":0.0010565588,"MEAN_MOTION_DOT":0.00028935,"MEAN_MOTION_DDOT":0},{"OBJECT_NAME":"DELTA 2 R\/B","OBJECT_ID":"1990-034B","EPOCH":"2026-03-09T11:50:38.100192","MEAN_MOTION":14.22012271,"ECCENTRICITY":0.04686634,"INCLINATION":22.7441,"RA_OF_ASC_NODE":150.4279,"ARG_OF_PERICENTER":275.616,"MEAN_ANOMALY":79.1052,"EPHEMERIS_TYPE":0,"CLASSIFICATION_TYPE":"U","NORAD_CAT_ID":20571,"ELEMENT_SET_NO":999,"REV_AT_EPOCH":84430,"BSTAR":0.00052085196,"MEAN_MOTION_DOT":4.065e-5,"MEAN_MOTION_DDOT":0}]
